*******************************************************************************
Ephemeris / WWW_USER Mon Mar 10 14:35:19 2025 Pasadena, USA      / Horizons    
*******************************************************************************
Target body name: (2018 KH3)                      {source: JPL#10}
Center body name: Earth (399)                     {source: DE441}
Center-site name: Mauna Kea
*******************************************************************************
Start time      : A.D. 2018-Aug-09 05:04:00.0000 UT      
Stop  time      : A.D. 2018-Aug-09 15:50:00.0000 UT      
Step-size       : 1 minutes
*******************************************************************************
Target pole/equ : undefined
Target radii    : undefined                                                    
Center geodetic : 204.5278, 19.8260847, 4.21024   {E-lon(deg),Lat(deg),Alt(km)}
Center cylindric: 204.5278, 6006.35451, 2151.0229 {E-lon(deg),Dxy(km),Dz(km)}
Center pole/equ : ITRF93                          {East-longitude positive}
Center radii    : 6378.137, 6378.137, 6356.752 km {Equator_a, b, pole_c}       
Target primary  : Sun
Vis. interferer : MOON (R_eq= 1737.400) km        {source: DE441}
Rel. light bend : Sun                             {source: DE441}
Rel. lght bnd GM: 1.3271E+11 km^3/s^2                                          
Small-body perts: Yes                             {source: SB441-N16}
Atmos refraction: NO (AIRLESS)
RA format       : HMS
Time format     : CAL 
Calendar mode   : Mixed Julian/Gregorian
RTS-only print  : NO       
EOP file        : eop.250307.p250603                                           
EOP coverage    : DATA-BASED 1962-JAN-20 TO 2025-MAR-07. PREDICTS-> 2025-JUN-02
Units conversion: 1 au= 149597870.700 km, c= 299792.458 km/s, 1 day= 86400.0 s 
Table cut-offs 1: Elevation (-90.0deg=NO ),Airmass (>38.000=NO), Daylight (YES)
Table cut-offs 2: Solar elongation (  0.0,180.0=NO ),Local Hour Angle( 0.0=NO )
Table cut-offs 3: RA/DEC angular rate (     0.0=NO )                           
*******************************************************************************
Initial IAU76/J2000 heliocentric ecliptic osculating elements (au, days, deg.):
  EPOCH=  2458288.5 ! 2018-Jun-19.00 (TDB)         Residual RMS= .22282        
   EC= .960925581819226    QR= 3.698978437965829   TP= 2457875.4618278281      
   OM= 293.0370088641419   W=  320.1514802298502   IN= 46.86534913190896       
  Equivalent ICRF heliocentric cartesian coordinates (au, au/d):
   X= 3.123713088662113E+00  Y=-4.022617727101489E+00  Z=-9.776572180429732E-02
  VX= 7.160289219203867E-03 VY=-1.601856640773144E-03 VZ= 7.695430476273978E-03
Asteroid physical parameters (km, seconds, rotational period in hours):        
   GM= n.a.                RAD= n.a.               ROTPER= n.a.                
   H= 13.69                G= .150                 B-V= n.a.                   
                           ALBEDO= n.a.            STYP= n.a.                  
*******************************************************************************
 Date__(UT)__HR:MN     R.A._________(ICRF)_________DEC
******************************************************
$$SOE
 2018-Aug-09 11:13     20 33 57.519040 +07 25 33.86268
 2018-Aug-09 11:14     20 33 57.493559 +07 25 33.92108
 2018-Aug-09 11:15     20 33 57.468079 +07 25 33.97948
 2018-Aug-09 11:16     20 33 57.442599 +07 25 34.03787
 2018-Aug-09 11:17     20 33 57.417121 +07 25 34.09625
 2018-Aug-09 11:18     20 33 57.391644 +07 25 34.15462
 2018-Aug-09 11:19     20 33 57.366168 +07 25 34.21299
 2018-Aug-09 11:20     20 33 57.340693 +07 25 34.27134
 2018-Aug-09 11:21     20 33 57.315219 +07 25 34.32970
 2018-Aug-09 11:22     20 33 57.289746 +07 25 34.38804
 2018-Aug-09 11:23     20 33 57.264274 +07 25 34.44638
 2018-Aug-09 11:24     20 33 57.238804 +07 25 34.50471
 2018-Aug-09 11:25     20 33 57.213334 +07 25 34.56303
 2018-Aug-09 11:26     20 33 57.187866 +07 25 34.62135
 2018-Aug-09 11:27     20 33 57.162399 +07 25 34.67966
 2018-Aug-09 11:28     20 33 57.136933 +07 25 34.73796
 2018-Aug-09 11:29     20 33 57.111468 +07 25 34.79626
 2018-Aug-09 11:30     20 33 57.086004 +07 25 34.85455
 2018-Aug-09 11:31     20 33 57.060542 +07 25 34.91283
 2018-Aug-09 11:32     20 33 57.035081 +07 25 34.97111
 2018-Aug-09 11:33     20 33 57.009621 +07 25 35.02937
 2018-Aug-09 11:34     20 33 56.984162 +07 25 35.08764
 2018-Aug-09 11:35     20 33 56.958704 +07 25 35.14589
 2018-Aug-09 11:36     20 33 56.933248 +07 25 35.20414
 2018-Aug-09 11:37     20 33 56.907793 +07 25 35.26238
 2018-Aug-09 11:38     20 33 56.882339 +07 25 35.32061
 2018-Aug-09 11:39     20 33 56.856886 +07 25 35.37884
 2018-Aug-09 11:40     20 33 56.831435 +07 25 35.43706
 2018-Aug-09 11:41     20 33 56.805985 +07 25 35.49527
 2018-Aug-09 11:42     20 33 56.780536 +07 25 35.55348
 2018-Aug-09 11:43     20 33 56.755089 +07 25 35.61168
 2018-Aug-09 11:44     20 33 56.729642 +07 25 35.66987
 2018-Aug-09 11:45     20 33 56.704198 +07 25 35.72806
 2018-Aug-09 11:46     20 33 56.678754 +07 25 35.78623
 2018-Aug-09 11:47     20 33 56.653312 +07 25 35.84441
 2018-Aug-09 11:48     20 33 56.627871 +07 25 35.90257
 2018-Aug-09 11:49     20 33 56.602432 +07 25 35.96073
 2018-Aug-09 11:50     20 33 56.576993 +07 25 36.01888
 2018-Aug-09 11:51     20 33 56.551557 +07 25 36.07703
 2018-Aug-09 11:52     20 33 56.526121 +07 25 36.13517
 2018-Aug-09 11:53     20 33 56.500687 +07 25 36.19330
 2018-Aug-09 11:54     20 33 56.475255 +07 25 36.25142
 2018-Aug-09 11:55     20 33 56.449824 +07 25 36.30954
 2018-Aug-09 11:56     20 33 56.424394 +07 25 36.36765
 2018-Aug-09 11:57     20 33 56.398966 +07 25 36.42576
 2018-Aug-09 11:58     20 33 56.373539 +07 25 36.48386
 2018-Aug-09 11:59     20 33 56.348113 +07 25 36.54195
 2018-Aug-09 12:00     20 33 56.322689 +07 25 36.60003
 2018-Aug-09 12:01     20 33 56.297267 +07 25 36.65811
 2018-Aug-09 12:02     20 33 56.271846 +07 25 36.71618
 2018-Aug-09 12:03     20 33 56.246426 +07 25 36.77425
 2018-Aug-09 12:04     20 33 56.221008 +07 25 36.83230
 2018-Aug-09 12:05     20 33 56.195592 +07 25 36.89036
 2018-Aug-09 12:06     20 33 56.170177 +07 25 36.94840
 2018-Aug-09 12:07     20 33 56.144763 +07 25 37.00644
 2018-Aug-09 12:08     20 33 56.119351 +07 25 37.06447
 2018-Aug-09 12:09     20 33 56.093940 +07 25 37.12250
 2018-Aug-09 12:10     20 33 56.068531 +07 25 37.18052
 2018-Aug-09 12:11     20 33 56.043124 +07 25 37.23853
 2018-Aug-09 12:12     20 33 56.017718 +07 25 37.29653
 2018-Aug-09 12:13     20 33 55.992314 +07 25 37.35453
 2018-Aug-09 12:14     20 33 55.966911 +07 25 37.41253
 2018-Aug-09 12:15     20 33 55.941510 +07 25 37.47051
 2018-Aug-09 12:16     20 33 55.916110 +07 25 37.52849
 2018-Aug-09 12:17     20 33 55.890712 +07 25 37.58647
 2018-Aug-09 12:18     20 33 55.865316 +07 25 37.64443
 2018-Aug-09 12:19     20 33 55.839921 +07 25 37.70239
 2018-Aug-09 12:20     20 33 55.814528 +07 25 37.76035
 2018-Aug-09 12:21     20 33 55.789137 +07 25 37.81830
 2018-Aug-09 12:22     20 33 55.763747 +07 25 37.87624
 2018-Aug-09 12:23     20 33 55.738359 +07 25 37.93417
 2018-Aug-09 12:24     20 33 55.712972 +07 25 37.99210
 2018-Aug-09 12:25     20 33 55.687587 +07 25 38.05002
 2018-Aug-09 12:26     20 33 55.662204 +07 25 38.10794
 2018-Aug-09 12:27     20 33 55.636823 +07 25 38.16585
 2018-Aug-09 12:28     20 33 55.611443 +07 25 38.22375
 2018-Aug-09 12:29     20 33 55.586065 +07 25 38.28165
 2018-Aug-09 12:30     20 33 55.560688 +07 25 38.33954
 2018-Aug-09 12:31     20 33 55.535313 +07 25 38.39742
 2018-Aug-09 12:32     20 33 55.509940 +07 25 38.45530
 2018-Aug-09 12:33     20 33 55.484569 +07 25 38.51317
 2018-Aug-09 12:34     20 33 55.459199 +07 25 38.57104
 2018-Aug-09 12:35     20 33 55.433832 +07 25 38.62890
 2018-Aug-09 12:36     20 33 55.408466 +07 25 38.68675
 2018-Aug-09 12:37     20 33 55.383101 +07 25 38.74460
 2018-Aug-09 12:38     20 33 55.357739 +07 25 38.80244
 2018-Aug-09 12:39     20 33 55.332378 +07 25 38.86027
 2018-Aug-09 12:40     20 33 55.307019 +07 25 38.91810
 2018-Aug-09 12:41     20 33 55.281662 +07 25 38.97592
 2018-Aug-09 12:42     20 33 55.256306 +07 25 39.03374
 2018-Aug-09 12:43     20 33 55.230953 +07 25 39.09155
 2018-Aug-09 12:44     20 33 55.205601 +07 25 39.14935
 2018-Aug-09 12:45     20 33 55.180251 +07 25 39.20715
 2018-Aug-09 12:46     20 33 55.154903 +07 25 39.26494
 2018-Aug-09 12:47     20 33 55.129557 +07 25 39.32273
 2018-Aug-09 12:48     20 33 55.104212 +07 25 39.38051
 2018-Aug-09 12:49     20 33 55.078869 +07 25 39.43828
 2018-Aug-09 12:50     20 33 55.053529 +07 25 39.49605
 2018-Aug-09 12:51     20 33 55.028190 +07 25 39.55381
 2018-Aug-09 12:52     20 33 55.002853 +07 25 39.61157
 2018-Aug-09 12:53     20 33 54.977518 +07 25 39.66932
 2018-Aug-09 12:54     20 33 54.952184 +07 25 39.72706
 2018-Aug-09 12:55     20 33 54.926853 +07 25 39.78480
 2018-Aug-09 12:56     20 33 54.901523 +07 25 39.84253
 2018-Aug-09 12:57     20 33 54.876196 +07 25 39.90026
 2018-Aug-09 12:58     20 33 54.850870 +07 25 39.95798
 2018-Aug-09 12:59     20 33 54.825546 +07 25 40.01569
 2018-Aug-09 13:00     20 33 54.800225 +07 25 40.07340
 2018-Aug-09 13:01     20 33 54.774905 +07 25 40.13110
 2018-Aug-09 13:02     20 33 54.749587 +07 25 40.18880
 2018-Aug-09 13:03     20 33 54.724271 +07 25 40.24649
 2018-Aug-09 13:04     20 33 54.698957 +07 25 40.30417
 2018-Aug-09 13:05     20 33 54.673645 +07 25 40.36185
 2018-Aug-09 13:06     20 33 54.648335 +07 25 40.41953
 2018-Aug-09 13:07     20 33 54.623026 +07 25 40.47719
 2018-Aug-09 13:08     20 33 54.597720 +07 25 40.53485
 2018-Aug-09 13:09     20 33 54.572416 +07 25 40.59251
 2018-Aug-09 13:10     20 33 54.547114 +07 25 40.65016
 2018-Aug-09 13:11     20 33 54.521814 +07 25 40.70781
 2018-Aug-09 13:12     20 33 54.496515 +07 25 40.76545
 2018-Aug-09 13:13     20 33 54.471219 +07 25 40.82308
 2018-Aug-09 13:14     20 33 54.445925 +07 25 40.88071
 2018-Aug-09 13:15     20 33 54.420633 +07 25 40.93833
